NOAA 15                 
1 25338U 98030A   22281.44477108  .00000238  00000+0  11751-3 0  9991
2 25338  98.6365 309.4625 0009758 333.7676  26.3009 14.26179258269375
NOAA 18                 
1 28654U 05018A   22281.38075778  .00000220  00000+0  14242-3 0  9998
2 28654  98.9395 351.6763 0014346  16.6064 343.5574 14.12786241896013
NOAA 19                 
1 33591U 09005A   22281.46568981  .00000257  00000+0  16381-3 0  9992
2 33591  99.1382 317.9262 0013217 227.9209 132.0839 14.12618967704406
METOP-B                 
1 38771U 12049A   22281.44927155  .00000152  00000+0  89672-4 0  9997
2 38771  98.7173 339.5495 0001728  83.3937 288.2324 14.21479699521786
SARAL                   
1 39086U 13009A   22281.15996411  .00000158  00000+0  74944-4 0  9995
2 39086  98.5486 105.1426 0000615  25.7378 334.3836 14.32033504502610
METOP-C                 
1 43689U 18087A   22281.41314262  .00000156  00000+0  91567-4 0  9995
2 43689  98.7220 339.5224 0004220  77.4130 282.7519 14.21473513203356
ANGELS                  
1 44876U 19092D   22281.43717334  .00004965  00000+0  24394-3 0  9995
2 44876  97.4760 103.4682 0011169 331.7030  28.3596 15.18458052155387
